STARLINK-31924          
1 59904U 24100V   26068.52988380 -.00002380  00000+0 -76999-4 0  9997
2 59904  43.0003 126.1950 0000846 276.5216  83.5539 15.27576037101121
OTTER                   
1 62623U 25009Q   26068.72300813  .00012198  00000+0  45151-3 0  9990
2 62623  97.4065 151.3812 0003573 310.7710  49.3219 15.27809545 63722
